{
    "links": {
        "self": "http://www.neowsapp.com/rest/v1/neo/54054745?api_key=iIulBulltgU6a56xZRHN4H3l9WmuAYTsLGpBGhQ2"
    },
    "id": "54054745",
    "neo_reference_id": "54054745",
    "name": "(2020 TD)",
    "designation": "2020 TD",
    "nasa_jpl_url": "http://ssd.jpl.nasa.gov/sbdb.cgi?sstr=54054745",
    "absolute_magnitude_h": 24.363,
    "estimated_diameter": {
        "kilometers": {
            "estimated_diameter_min": 0.0356414182,
            "estimated_diameter_max": 0.0796966339
        },
        "meters": {
            "estimated_diameter_min": 35.6414181983,
            "estimated_diameter_max": 79.696633906
        },
        "miles": {
            "estimated_diameter_min": 0.0221465437,
            "estimated_diameter_max": 0.0495211771
        },
        "feet": {
            "estimated_diameter_min": 116.9337904819,
            "estimated_diameter_max": 261.4719043841
        }
    },
    "is_potentially_hazardous_asteroid": false,
    "close_approach_data": [
        {
            "close_approach_date": "1913-06-05",
            "close_approach_date_full": "1913-Jun-05 00:45",
            "epoch_date_close_approach": -1785366900000,
            "relative_velocity": {
                "kilometers_per_second": "16.3168806302",
                "kilometers_per_hour": "58740.7702686376",
                "miles_per_hour": "36499.2302816432"
            },
            "miss_distance": {
                "astronomical": "0.0463293044",
                "lunar": "18.0220994116",
                "kilometers": "6930765.256821628",
                "miles": "4306577.8319213464"
            },
            "orbiting_body": "Mars"
        },
        {
            "close_approach_date": "2020-10-14",
            "close_approach_date_full": "2020-Oct-14 14:14",
            "epoch_date_close_approach": 1602684840000,
            "relative_velocity": {
                "kilometers_per_second": "14.4098464871",
                "kilometers_per_hour": "51875.4473534592",
                "miles_per_hour": "32233.3856069314"
            },
            "miss_distance": {
                "astronomical": "0.0484081612",
                "lunar": "18.8307747068",
                "kilometers": "7241757.806136644",
                "miles": "4499819.6413239272"
            },
            "orbiting_body": "Earth"
        }
    ],
    "orbital_data": {
        "orbit_id": "6",
        "orbit_determination_date": "2020-10-13 07:04:09",
        "first_observation_date": "2020-09-13",
        "last_observation_date": "2020-10-13",
        "data_arc_in_days": 30,
        "observations_used": 38,
        "orbit_uncertainty": "7",
        "minimum_orbit_intersection": ".0205829",
        "jupiter_tisserand_invariant": "3.545",
        "epoch_osculation": "2459000.5",
        "eccentricity": ".6116736668141525",
        "semi_major_axis": "2.033276430536428",
        "inclination": "4.409192715944286",
        "ascending_node_longitude": "342.6781938323643",
        "orbital_period": "1058.992944060535",
        "perihelion_distance": ".7895747806234198",
        "perihelion_argument": "102.1580277741595",
        "aphelion_distance": "3.276978080449437",
        "perihelion_time": "2459179.359819823586",
        "mean_anomaly": "299.1973898432222",
        "mean_motion": ".3399456077767988",
        "equinox": "J2000",
        "orbit_class": {
            "orbit_class_type": "APO",
            "orbit_class_description": "Near-Earth asteroid orbits which cross the Earth’s orbit similar to that of 1862 Apollo",
            "orbit_class_range": "a (semi-major axis) > 1.0 AU; q (perihelion) < 1.017 AU"
        }
    },
    "is_sentry_object": false
}